ONEWEB-0311             
1 49097U 21075Y   26015.00846615  .00000056  00000+0  11179-3 0  9990
2 49097  87.9092  36.2998 0002148  96.0950 264.0426 13.17647988213450
ONEWEB-0312             
1 49098U 21075Z   26015.09959107 -.00000003  00000+0 -40720-4 0  9990
2 49098  87.9083  36.3044 0001924 103.9537 256.1808 13.17650260213446
ONEWEB-0313             
1 49099U 21075AA  26015.10451933  .00000062  00000+0  12614-3 0  9990
2 49099  87.9080  36.3103 0001905  95.0750 265.0599 13.17650030213437
ONEWEB-0314             
1 49100U 21075AB  26015.07090404  .00000066  00000+0  13732-3 0  9997
2 49100  87.9094  36.2741 0002003 104.3241 255.8113 13.17650673213400
ONEWEB-0315             
1 49101U 21075AC  26014.97180673 -.00000200  00000+0 -59190-3 0  9994
2 49101  87.8929  21.0626 0002182  89.3031 270.8347 13.12444139215072
ONEWEB-0316             
1 49102U 21075AD  26014.96422719  .00000050  00000+0  94528-4 0  9990
2 49102  87.9178   5.8880 0001894  87.3292 272.8057 13.18685710217012
ONEWEB-0317             
1 49103U 21075AE  26014.97480515  .00013564  00000+0  37853-1 0  9999
2 49103  87.8928  21.0836 0000556  14.1626 345.9518 13.12005329215095
ONEWEB-0318             
1 49104U 21075AF  26015.03680440 -.00000041  00000+0 -13591-3 0  9990
2 49104  87.9184   5.8615 0002057  88.8835 271.2533 13.18685186216982
ONEWEB-0319             
1 49105U 21075AG  26015.01014731  .00000112  00000+0  25633-3 0  9990
2 49105  87.9084  36.3165 0002381  91.5912 268.5492 13.17648221213436
ONEWEB-0323             
1 49106U 21075AH  26015.03279185 -.00000394  00000+0 -11310-2 0  9999
2 49106  87.8927  21.0548 0002410  96.9087 263.2316 13.12443602214465
ONEWEB-0329             
1 49107U 21075AJ  26015.01859866  .00000041  00000+0  71215-4 0  9997
2 49107  87.9081  36.3158 0001895  97.0183 263.1164 13.17649300213411
ONEWEB-0330             
1 49108U 21075AK  26015.01943573  .00000082  00000+0  17852-3 0  9998
2 49108  87.9083  36.3225 0001746 100.7163 259.4166 13.17648775213453
ONEWEB-0292             
1 49186U 21083A   26014.89624252  .00000025  00000+0  33324-4 0  9998
2 49186  87.8992 350.7196 0001915  84.6984 275.4364 13.13469815210802
ONEWEB-0303             
1 49187U 21083B   26015.03350487 -.00000043  00000+0 -14189-3 0  9991
2 49187  87.9185   5.8641 0001980  88.4334 271.7025 13.18685643209797
ONEWEB-0306             
1 49188U 21083C   26015.02361141  .00000017  00000+0  11649-4 0  9998
2 49188  87.9184   5.8501 0001555  86.0481 274.0828 13.18686232209834
ONEWEB-0307             
1 49189U 21083D   26014.96648846 -.00000136  00000+0 -40789-3 0  9991
2 49189  87.8979 350.6957 0001813  84.6752 275.4584 13.13469414210814
ONEWEB-0320             
1 49190U 21083E   26015.03103355  .00000043  00000+0  76652-4 0  9997
2 49190  87.9177   5.8759 0001777  88.1688 271.9648 13.18685174209797
