[{"OBJECT_NAME":"ONEWEB-0311","OBJECT_ID":"2021-075Y","EPOCH":"2026-01-15T00:12:11.475360","MEAN_MOTION":13.17647988,"ECCENTRICITY":0.0002148,"INCLINATION":87.9092,"RA_OF_ASC_NODE":36.2998,"ARG_OF_PERICENTER":96.095,"MEAN_ANOMALY":264.0426,"EPHEMERIS_TYPE":0,"CLASSIFICATION_TYPE":"U","NORAD_CAT_ID":49097,"ELEMENT_SET_NO":999,"REV_AT_EPOCH":21345,"BSTAR":0.00011179,"MEAN_MOTION_DOT":5.6e-7,"MEAN_MOTION_DDOT":0},{"OBJECT_NAME":"ONEWEB-0312","OBJECT_ID":"2021-075Z","EPOCH":"2026-01-15T02:23:24.668448","MEAN_MOTION":13.1765026,"ECCENTRICITY":0.0001924,"INCLINATION":87.9083,"RA_OF_ASC_NODE":36.3044,"ARG_OF_PERICENTER":103.9537,"MEAN_ANOMALY":256.1808,"EPHEMERIS_TYPE":0,"CLASSIFICATION_TYPE":"U","NORAD_CAT_ID":49098,"ELEMENT_SET_NO":999,"REV_AT_EPOCH":21344,"BSTAR":-4.072e-5,"MEAN_MOTION_DOT":-3.0e-8,"MEAN_MOTION_DDOT":0},{"OBJECT_NAME":"ONEWEB-0313","OBJECT_ID":"2021-075AA","EPOCH":"2026-01-15T02:30:30.470112","MEAN_MOTION":13.1765003,"ECCENTRICITY":0.0001905,"INCLINATION":87.908,"RA_OF_ASC_NODE":36.3103,"ARG_OF_PERICENTER":95.075,"MEAN_ANOMALY":265.0599,"EPHEMERIS_TYPE":0,"CLASSIFICATION_TYPE":"U","NORAD_CAT_ID":49099,"ELEMENT_SET_NO":999,"REV_AT_EPOCH":21343,"BSTAR":0.00012614,"MEAN_MOTION_DOT":6.2e-7,"MEAN_MOTION_DDOT":0},{"OBJECT_NAME":"ONEWEB-0314","OBJECT_ID":"2021-075AB","EPOCH":"2026-01-15T01:42:06.109056","MEAN_MOTION":13.17650673,"ECCENTRICITY":0.0002003,"INCLINATION":87.9094,"RA_OF_ASC_NODE":36.2741,"ARG_OF_PERICENTER":104.3241,"MEAN_ANOMALY":255.8113,"EPHEMERIS_TYPE":0,"CLASSIFICATION_TYPE":"U","NORAD_CAT_ID":49100,"ELEMENT_SET_NO":999,"REV_AT_EPOCH":21340,"BSTAR":0.00013732,"MEAN_MOTION_DOT":6.6e-7,"MEAN_MOTION_DDOT":0},{"OBJECT_NAME":"ONEWEB-0315","OBJECT_ID":"2021-075AC","EPOCH":"2026-01-14T23:19:24.101472","MEAN_MOTION":13.12444139,"ECCENTRICITY":0.0002182,"INCLINATION":87.8929,"RA_OF_ASC_NODE":21.0626,"ARG_OF_PERICENTER":89.3031,"MEAN_ANOMALY":270.8347,"EPHEMERIS_TYPE":0,"CLASSIFICATION_TYPE":"U","NORAD_CAT_ID":49101,"ELEMENT_SET_NO":999,"REV_AT_EPOCH":21507,"BSTAR":-0.0005919,"MEAN_MOTION_DOT":-2.0e-6,"MEAN_MOTION_DDOT":0},{"OBJECT_NAME":"ONEWEB-0316","OBJECT_ID":"2021-075AD","EPOCH":"2026-01-14T23:08:29.229216","MEAN_MOTION":13.1868571,"ECCENTRICITY":0.0001894,"INCLINATION":87.9178,"RA_OF_ASC_NODE":5.888,"ARG_OF_PERICENTER":87.3292,"MEAN_ANOMALY":272.8057,"EPHEMERIS_TYPE":0,"CLASSIFICATION_TYPE":"U","NORAD_CAT_ID":49102,"ELEMENT_SET_NO":999,"REV_AT_EPOCH":21701,"BSTAR":9.4528e-5,"MEAN_MOTION_DOT":5.0e-7,"MEAN_MOTION_DDOT":0},{"OBJECT_NAME":"ONEWEB-0317","OBJECT_ID":"2021-075AE","EPOCH":"2026-01-14T23:23:43.164960","MEAN_MOTION":13.12005329,"ECCENTRICITY":5.56e-5,"INCLINATION":87.8928,"RA_OF_ASC_NODE":21.0836,"ARG_OF_PERICENTER":14.1626,"MEAN_ANOMALY":345.9518,"EPHEMERIS_TYPE":0,"CLASSIFICATION_TYPE":"U","NORAD_CAT_ID":49103,"ELEMENT_SET_NO":999,"REV_AT_EPOCH":21509,"BSTAR":0.037853,"MEAN_MOTION_DOT":0.00013564,"MEAN_MOTION_DDOT":0},{"OBJECT_NAME":"ONEWEB-0318","OBJECT_ID":"2021-075AF","EPOCH":"2026-01-15T00:52:59.900160","MEAN_MOTION":13.18685186,"ECCENTRICITY":0.0002057,"INCLINATION":87.9184,"RA_OF_ASC_NODE":5.8615,"ARG_OF_PERICENTER":88.8835,"MEAN_ANOMALY":271.2533,"EPHEMERIS_TYPE":0,"CLASSIFICATION_TYPE":"U","NORAD_CAT_ID":49104,"ELEMENT_SET_NO":999,"REV_AT_EPOCH":21698,"BSTAR":-0.00013591,"MEAN_MOTION_DOT":-4.1e-7,"MEAN_MOTION_DDOT":0},{"OBJECT_NAME":"ONEWEB-0319","OBJECT_ID":"2021-075AG","EPOCH":"2026-01-15T00:14:36.727584","MEAN_MOTION":13.17648221,"ECCENTRICITY":0.0002381,"INCLINATION":87.9084,"RA_OF_ASC_NODE":36.3165,"ARG_OF_PERICENTER":91.5912,"MEAN_ANOMALY":268.5492,"EPHEMERIS_TYPE":0,"CLASSIFICATION_TYPE":"U","NORAD_CAT_ID":49105,"ELEMENT_SET_NO":999,"REV_AT_EPOCH":21343,"BSTAR":0.00025633,"MEAN_MOTION_DOT":1.12e-6,"MEAN_MOTION_DDOT":0},{"OBJECT_NAME":"ONEWEB-0323","OBJECT_ID":"2021-075AH","EPOCH":"2026-01-15T00:47:13.215840","MEAN_MOTION":13.12443602,"ECCENTRICITY":0.000241,"INCLINATION":87.8927,"RA_OF_ASC_NODE":21.0548,"ARG_OF_PERICENTER":96.9087,"MEAN_ANOMALY":263.2316,"EPHEMERIS_TYPE":0,"CLASSIFICATION_TYPE":"U","NORAD_CAT_ID":49106,"ELEMENT_SET_NO":999,"REV_AT_EPOCH":21446,"BSTAR":-0.001131,"MEAN_MOTION_DOT":-3.94e-6,"MEAN_MOTION_DDOT":0},{"OBJECT_NAME":"ONEWEB-0329","OBJECT_ID":"2021-075AJ","EPOCH":"2026-01-15T00:26:46.924224","MEAN_MOTION":13.176493,"ECCENTRICITY":0.0001895,"INCLINATION":87.9081,"RA_OF_ASC_NODE":36.3158,"ARG_OF_PERICENTER":97.0183,"MEAN_ANOMALY":263.1164,"EPHEMERIS_TYPE":0,"CLASSIFICATION_TYPE":"U","NORAD_CAT_ID":49107,"ELEMENT_SET_NO":999,"REV_AT_EPOCH":21341,"BSTAR":7.1215e-5,"MEAN_MOTION_DOT":4.1e-7,"MEAN_MOTION_DDOT":0},{"OBJECT_NAME":"ONEWEB-0330","OBJECT_ID":"2021-075AK","EPOCH":"2026-01-15T00:27:59.247072","MEAN_MOTION":13.17648775,"ECCENTRICITY":0.0001746,"INCLINATION":87.9083,"RA_OF_ASC_NODE":36.3225,"ARG_OF_PERICENTER":100.7163,"MEAN_ANOMALY":259.4166,"EPHEMERIS_TYPE":0,"CLASSIFICATION_TYPE":"U","NORAD_CAT_ID":49108,"ELEMENT_SET_NO":999,"REV_AT_EPOCH":21345,"BSTAR":0.00017852,"MEAN_MOTION_DOT":8.2e-7,"MEAN_MOTION_DDOT":0},{"OBJECT_NAME":"ONEWEB-0292","OBJECT_ID":"2021-083A","EPOCH":"2026-01-14T21:30:35.353728","MEAN_MOTION":13.13469815,"ECCENTRICITY":0.0001915,"INCLINATION":87.8992,"RA_OF_ASC_NODE":350.7196,"ARG_OF_PERICENTER":84.6984,"MEAN_ANOMALY":275.4364,"EPHEMERIS_TYPE":0,"CLASSIFICATION_TYPE":"U","NORAD_CAT_ID":49186,"ELEMENT_SET_NO":999,"REV_AT_EPOCH":21080,"BSTAR":3.3324e-5,"MEAN_MOTION_DOT":2.5e-7,"MEAN_MOTION_DDOT":0},{"OBJECT_NAME":"ONEWEB-0303","OBJECT_ID":"2021-083B","EPOCH":"2026-01-15T00:48:14.820768","MEAN_MOTION":13.18685643,"ECCENTRICITY":0.000198,"INCLINATION":87.9185,"RA_OF_ASC_NODE":5.8641,"ARG_OF_PERICENTER":88.4334,"MEAN_ANOMALY":271.7025,"EPHEMERIS_TYPE":0,"CLASSIFICATION_TYPE":"U","NORAD_CAT_ID":49187,"ELEMENT_SET_NO":999,"REV_AT_EPOCH":20979,"BSTAR":-0.00014189,"MEAN_MOTION_DOT":-4.3e-7,"MEAN_MOTION_DDOT":0},{"OBJECT_NAME":"ONEWEB-0306","OBJECT_ID":"2021-083C","EPOCH":"2026-01-15T00:34:00.025824","MEAN_MOTION":13.18686232,"ECCENTRICITY":0.0001555,"INCLINATION":87.9184,"RA_OF_ASC_NODE":5.8501,"ARG_OF_PERICENTER":86.0481,"MEAN_ANOMALY":274.0828,"EPHEMERIS_TYPE":0,"CLASSIFICATION_TYPE":"U","NORAD_CAT_ID":49188,"ELEMENT_SET_NO":999,"REV_AT_EPOCH":20983,"BSTAR":1.1649e-5,"MEAN_MOTION_DOT":1.7e-7,"MEAN_MOTION_DDOT":0},{"OBJECT_NAME":"ONEWEB-0307","OBJECT_ID":"2021-083D","EPOCH":"2026-01-14T23:11:44.602944","MEAN_MOTION":13.13469414,"ECCENTRICITY":0.0001813,"INCLINATION":87.8979,"RA_OF_ASC_NODE":350.6957,"ARG_OF_PERICENTER":84.6752,"MEAN_ANOMALY":275.4584,"EPHEMERIS_TYPE":0,"CLASSIFICATION_TYPE":"U","NORAD_CAT_ID":49189,"ELEMENT_SET_NO":999,"REV_AT_EPOCH":21081,"BSTAR":-0.00040789,"MEAN_MOTION_DOT":-1.36e-6,"MEAN_MOTION_DDOT":0},{"OBJECT_NAME":"ONEWEB-0320","OBJECT_ID":"2021-083E","EPOCH":"2026-01-15T00:44:41.298720","MEAN_MOTION":13.18685174,"ECCENTRICITY":0.0001777,"INCLINATION":87.9177,"RA_OF_ASC_NODE":5.8759,"ARG_OF_PERICENTER":88.1688,"MEAN_ANOMALY":271.9648,"EPHEMERIS_TYPE":0,"CLASSIFICATION_TYPE":"U","NORAD_CAT_ID":49190,"ELEMENT_SET_NO":999,"REV_AT_EPOCH":20979,"BSTAR":7.6652e-5,"MEAN_MOTION_DOT":4.3e-7,"MEAN_MOTION_DDOT":0}]
